0 ATLAS CENTAUR R/B
1 12445U 80098B   13282.24293237  .00004731  00000-0  75925-3 0  4282
2 12445 023.6588 184.1541 4302344 267.8841 324.7378 06.80275495741552
0 ATLAS CENTAUR R/B
1 12445U 80098B   13283.27008699  .00004694  00000-0  75332-3 0  4293
2 12445 023.6590 182.4961 4302288 270.7769 320.2464 06.80283520741624
0 ATLAS CENTAUR R/B
1 12445U 80098B   13286.20879740  .00004023  00000-0  64722-3 0  4312
2 12445 023.6579 177.7537 4301743 279.0500 317.3234 06.80303786741828
0 ATLAS CENTAUR R/B
1 12445U 80098B   13287.23914535  .00004393  00000-0  71148-3 0  4329
2 12445 023.6580 176.0920 4301500 281.9480 320.7582 06.80309831741896
0 ATLAS CENTAUR R/B
1 12445U 80098B   13288.26343498  .00005630  00000-0  92129-3 0  4335
2 12445 023.6574 174.4408 4301248 284.8277 309.3832 06.80319581741969
0 ATLAS CENTAUR R/B
1 12445U 80098B   13289.62203095  .00005389  00000-0  88323-3 0  4347
2 12445 023.6562 172.2509 4301043 288.6465 036.8258 06.80330984742053
0 ATLAS CENTAUR R/B
1 12445U 80098B   13291.20514703  .00004548  00000-0  74222-3 0  4355
2 12445 023.6543 169.6974 4300968 293.0972 314.2253 06.80343922742162
0 ATLAS CENTAUR R/B
1 12445U 80098B   13292.23283747  .00004423  00000-0  72092-3 0  4366
2 12445 023.6534 168.0392 4300967 295.9876 311.3030 06.80351191742238
0 ATLAS CENTAUR R/B
1 12445U 80098B   13293.74943096  .00004728  00000-0  77144-3 0  4375
2 12445 023.6519 165.5906 4300976 300.2561 065.8817 06.80363258742337
0 ATLAS CENTAUR R/B
1 12445U 80098B   13294.77735340  .00005285  00000-0  86446-3 0  4385
2 12445 023.6511 163.9303 4300968 303.1508 063.5984 06.80370960742402
0 ATLAS CENTAUR R/B
1 12445U 80098B   13296.03757826  .00005143  00000-0  84026-3 0  4395
2 12445 023.6500 161.8943 4300972 306.7008 270.3386 06.80380372742497
